{"type": "FeatureCollection", "features": [ {"type": "Feature", "properties": {"norad_id": 38552, "name": "METEOSAT-10 (MSG-3)", "group": "weather", "lat": -3.4406951531308034, "lon": 7.207827018595514, "alt_km": 35783.37343839251, "timestamp": "2025-12-14T18:52:55.141826+00:00", "meta": {"OBJECT_NAME": "METEOSAT-10 (MSG-3)", "OBJECT_ID": "2012-035B", "EPOCH": "2025-12-13T22:00:41.365152", "MEAN_MOTION": 1.0027538, "ECCENTRICITY": 7.474e-05, "INCLINATION": 4.2317, "RA_OF_ASC_NODE": 61.722, "ARG_OF_PERICENTER": 257.8999, "MEAN_ANOMALY": 93.5851, "EPHEMERIS_TYPE": 0, "CLASSIFICATION_TYPE": "U", "NORAD_CAT_ID": 38552, "ELEMENT_SET_NO": 999, "REV_AT_EPOCH": 4899, "BSTAR": 0, "MEAN_MOTION_DOT": 1e-07, "MEAN_MOTION_DDOT": 0}, "tle": {"line1": "1 38552U 12035B   25347.91714543  .00000010  00000+0  00000+0 0  9998", "line2": "2 38552   4.2317  61.7220 0000747 257.8999  93.5851  1.00275380 48994"}}, "geometry": {"type": "Point", "coordinates": [7.207827018595514, -3.4406951531308034]}}, {"type": "Feature", "properties": {"norad_id": 38771, "name": "METOP-B", "group": "weather", "lat": 62.09897315641677, "lon": -124.52107896027178, "alt_km": 812.5434676425002, "timestamp": "2025-12-14T18:52:55.141838+00:00", "meta": {"OBJECT_NAME": "METOP-B", "OBJECT_ID": "2012-049A", "EPOCH": "2025-12-13T23:45:06.893568", "MEAN_MOTION": 14.21408871, "ECCENTRICITY": 0.00029598, "INCLINATION": 98.6799, "RA_OF_ASC_NODE": 37.9272, "ARG_OF_PERICENTER": 141.4176, "MEAN_ANOMALY": 218.7213, "EPHEMERIS_TYPE": 0, "CLASSIFICATION_TYPE": "U", "NORAD_CAT_ID": 38771, "ELEMENT_SET_NO": 999, "REV_AT_EPOCH": 68695, "BSTAR": 0.00010364838, "MEAN_MOTION_DOT": 1.83e-06, "MEAN_MOTION_DDOT": 0}, "tle": {"line1": "1 38771U 12049A   25347.98966312  .00000183  00000+0  10365-3 0  9996", "line2": "2 38771  98.6799  37.9272 0002959 141.4176 218.7213 14.21408871686959"}}, "geometry": {"type": "Point", "coordinates": [-124.52107896027178, 62.09897315641677]}}, {"type": "Feature", "properties": {"norad_id": 39216, "name": "INSAT-3D", "group": "weather", "lat": 1.1416498798183186, "lon": 136.41558688657267, "alt_km": 35789.032547513736, "timestamp": "2025-12-14T18:52:55.141850+00:00", "meta": {"OBJECT_NAME": "INSAT-3D", "OBJECT_ID": "2013-038B", "EPOCH": "2025-12-13T22:37:30.340128", "MEAN_MOTION": 1.00269512, "ECCENTRICITY": 0.00013739, "INCLINATION": 1.448, "RA_OF_ASC_NODE": 84.9824, "ARG_OF_PERICENTER": 165.1103, "MEAN_ANOMALY": 301.6765, "EPHEMERIS_TYPE": 0, "CLASSIFICATION_TYPE": "U", "NORAD_CAT_ID": 39216, "ELEMENT_SET_NO": 999, "REV_AT_EPOCH": 4522, "BSTAR": 0, "MEAN_MOTION_DOT": -3.23e-06, "MEAN_MOTION_DDOT": 0}, "tle": {"line1": "1 39216U 13038B   25347.94271227 -.00000323  00000+0  00000+0 0  9998", "line2": "2 39216   1.4480  84.9824 0001373 165.1103 301.6765  1.00269512 45223"}}, "geometry": {"type": "Point", "coordinates": [136.41558688657267, 1.1416498798183186]}}, {"type": "Feature", "properties": {"norad_id": 39260, "name": "FENGYUN 3C", "group": "weather", "lat": -37.96087342307789, "lon": -26.952640877906205, "alt_km": 853.1774075263829, "timestamp": "2025-12-14T18:52:55.141862+00:00", "meta": {"OBJECT_NAME": "FENGYUN 3C", "OBJECT_ID": "2013-052A", "EPOCH": "2025-12-13T22:42:31.869216", "MEAN_MOTION": 14.15696759, "ECCENTRICITY": 0.0014357, "INCLINATION": 98.4764, "RA_OF_ASC_NODE": 325.5667, "ARG_OF_PERICENTER": 192.4922, "MEAN_ANOMALY": 167.5899, "EPHEMERIS_TYPE": 0, "CLASSIFICATION_TYPE": "U", "NORAD_CAT_ID": 39260, "ELEMENT_SET_NO": 999, "REV_AT_EPOCH": 63235, "BSTAR": 9.9622269e-05, "MEAN_MOTION_DOT": 1.54e-06, "MEAN_MOTION_DDOT": 0}, "tle": {"line1": "1 39260U 13052A   25347.94620219  .00000154  00000+0  99622-4 0  9996", "line2": "2 39260  98.4764 325.5667 0014357 192.4922 167.5899 14.15696759632350"}}, "geometry": {"type": "Point", "coordinates": [-26.952640877906205, -37.96087342307789]}}, {"type": "Feature", "properties": {"norad_id": 40069, "name": "METEOR-M 2", "group": "weather", "lat": -15.176847129781539, "lon": -31.385090330612904, "alt_km": 828.1682931806236, "timestamp": "2025-12-14T18:52:55.141873+00:00", "meta": {"OBJECT_NAME": "METEOR-M 2", "OBJECT_ID": "2014-037A", "EPOCH": "2025-12-13T22:40:50.383776", "MEAN_MOTION": 14.21386699, "ECCENTRICITY": 0.00050353, "INCLINATION": 98.4903, "RA_OF_ASC_NODE": 325.4833, "ARG_OF_PERICENTER": 205.8807, "MEAN_ANOMALY": 154.212, "EPHEMERIS_TYPE": 0, "CLASSIFICATION_TYPE": "U", "NORAD_CAT_ID": 40069, "ELEMENT_SET_NO": 999, "REV_AT_EPOCH": 59300, "BSTAR": 0.00010284833, "MEAN_MOTION_DOT": 1.83e-06, "MEAN_MOTION_DDOT": 0}, "tle": {"line1": "1 40069U 14037A   25347.94502759  .00000183  00000+0  10285-3 0  9996", "line2": "2 40069  98.4903 325.4833 0005035 205.8807 154.2120 14.21386699593006"}}, "geometry": {"type": "Point", "coordinates": [-31.385090330612904, -15.176847129781539]}}, {"type": "Feature", "properties": {"norad_id": 40267, "name": "HIMAWARI-8", "group": "weather", "lat": -0.015093945496011127, "lon": 147.57317224409897, "alt_km": 35788.4929034102, "timestamp": "2025-12-14T18:52:55.141885+00:00", "meta": {"OBJECT_NAME": "HIMAWARI-8", "OBJECT_ID": "2014-060A", "EPOCH": "2025-12-13T22:40:45.028704", "MEAN_MOTION": 1.00273494, "ECCENTRICITY": 9.609e-05, "INCLINATION": 0.0402, "RA_OF_ASC_NODE": 166.9283, "ARG_OF_PERICENTER": 114.3802, "MEAN_ANOMALY": 282.4059, "EPHEMERIS_TYPE": 0, "CLASSIFICATION_TYPE": "U", "NORAD_CAT_ID": 40267, "ELEMENT_SET_NO": 999, "REV_AT_EPOCH": 4090, "BSTAR": 0, "MEAN_MOTION_DOT": -2.58e-06, "MEAN_MOTION_DDOT": 0}, "tle": {"line1": "1 40267U 14060A   25347.94496561 -.00000258  00000+0  00000+0 0  9999", "line2": "2 40267   0.0402 166.9283 0000960 114.3802 282.4059  1.00273494 40909"}}, "geometry": {"type": "Point", "coordinates": [147.57317224409897, -0.015093945496011127]}}, {"type": "Feature", "properties": {"norad_id": 40367, "name": "FENGYUN 2G", "group": "weather", "lat": 2.704512913088797, "lon": 106.28342750075797, "alt_km": 35800.78446158256, "timestamp": "2025-12-14T18:52:55.141897+00:00", "meta": {"OBJECT_NAME": "FENGYUN 2G", "OBJECT_ID": "2014-090A", "EPOCH": "2025-12-13T19:03:33.526656", "MEAN_MOTION": 1.00263852, "ECCENTRICITY": 0.00030684, "INCLINATION": 5.1713, "RA_OF_ASC_NODE": 75.0867, "ARG_OF_PERICENTER": 199.4917, "MEAN_ANOMALY": 193.5321, "EPHEMERIS_TYPE": 0, "CLASSIFICATION_TYPE": "U", "NORAD_CAT_ID": 40367, "ELEMENT_SET_NO": 999, "REV_AT_EPOCH": 4014, "BSTAR": 0, "MEAN_MOTION_DOT": -2.86e-06, "MEAN_MOTION_DDOT": 0}, "tle": {"line1": "1 40367U 14090A   25347.79413804 -.00000286  00000+0  00000+0 0  9996", "line2": "2 40367   5.1713  75.0867 0003068 199.4917 193.5321  1.00263852 40149"}}, "geometry": {"type": "Point", "coordinates": [106.28342750075797, 2.704512913088797]}}, {"type": "Feature", "properties": {"norad_id": 40732, "name": "METEOSAT-11 (MSG-4)", "group": "weather", "lat": -2.2536196027653213, "lon": 16.215563106457598, "alt_km": 35791.264319488575, "timestamp": "2025-12-14T18:52:55.141909+00:00", "meta": {"OBJECT_NAME": "METEOSAT-11 (MSG-4)", "OBJECT_ID": "2015-034A", "EPOCH": "2025-12-13T22:03:11.125728", "MEAN_MOTION": 1.00267859, "ECCENTRICITY": 9.197e-05, "INCLINATION": 2.7385, "RA_OF_ASC_NODE": 71.998, "ARG_OF_PERICENTER": 128.2543, "MEAN_ANOMALY": 222.6617, "EPHEMERIS_TYPE": 0, "CLASSIFICATION_TYPE": "U", "NORAD_CAT_ID": 40732, "ELEMENT_SET_NO": 999, "REV_AT_EPOCH": 535, "BSTAR": 0, "MEAN_MOTION_DOT": 7.7e-07, "MEAN_MOTION_DDOT": 0}, "tle": {"line1": "1 40732U 15034A   25347.91887877  .00000077  00000+0  00000+0 0  9997", "line2": "2 40732   2.7385  71.9980 0000919 128.2543 222.6617  1.00267859  5358"}}, "geometry": {"type": "Point", "coordinates": [16.215563106457598, -2.2536196027653213]}}, {"type": "Feature", "properties": {"norad_id": 41105, "name": "ELEKTRO-L 2", "group": "weather", "lat": -6.140318738398004, "lon": -7.468559527533118, "alt_km": 35781.84363088823, "timestamp": "2025-12-14T18:52:55.141922+00:00", "meta": {"OBJECT_NAME": "ELEKTRO-L 2", "OBJECT_ID": "2015-074A", "EPOCH": "2025-12-13T23:39:09.434304", "MEAN_MOTION": 1.00272402, "ECCENTRICITY": 0.00039129, "INCLINATION": 6.229, "RA_OF_ASC_NODE": 72.8143, "ARG_OF_PERICENTER": 206.981, "MEAN_ANOMALY": 143.4065, "EPHEMERIS_TYPE": 0, "CLASSIFICATION_TYPE": "U", "NORAD_CAT_ID": 41105, "ELEMENT_SET_NO": 999, "REV_AT_EPOCH": 3664, "BSTAR": 0, "MEAN_MOTION_DOT": -1.03e-06, "MEAN_MOTION_DDOT": 0}, "tle": {"line1": "1 41105U 15074A   25347.98552586 -.00000103  00000+0  00000+0 0  9990", "line2": "2 41105   6.2290  72.8143 0003912 206.9810 143.4065  1.00272402 36648"}}, "geometry": {"type": "Point", "coordinates": [-7.468559527533118, -6.140318738398004]}}, {"type": "Feature", "properties": {"norad_id": 41752, "name": "INSAT-3DR", "group": "weather", "lat": 0.012765490751185144, "lon": 80.93836747267873, "alt_km": 35846.02016818762, "timestamp": "2025-12-14T18:52:55.141935+00:00", "meta": {"OBJECT_NAME": "INSAT-3DR", "OBJECT_ID": "2016-054A", "EPOCH": "2025-12-13T13:48:11.230272", "MEAN_MOTION": 1.00271015, "ECCENTRICITY": 0.00143186, "INCLINATION": 0.094, "RA_OF_ASC_NODE": 86.7306, "ARG_OF_PERICENTER": 184.0586, "MEAN_ANOMALY": 92.7569, "EPHEMERIS_TYPE": 0, "CLASSIFICATION_TYPE": "U", "NORAD_CAT_ID": 41752, "ELEMENT_SET_NO": 999, "REV_AT_EPOCH": 3395, "BSTAR": 0, "MEAN_MOTION_DOT": -6.2e-07, "MEAN_MOTION_DDOT": 0}, "tle": {"line1": "1 41752U 16054A   25347.57512998 -.00000062  00000+0  00000+0 0  9999", "line2": "2 41752   0.0940  86.7306 0014318 184.0586  92.7569  1.00271015 33958"}}, "geometry": {"type": "Point", "coordinates": [80.93836747267873, 0.012765490751185144]}}]}